[{"OBJECT_NAME":"STARLINK-31080","OBJECT_ID":"2023-200Q","EPOCH":"2026-03-09T22:00:01.999584","MEAN_MOTION":15.2671397,"ECCENTRICITY":0.00015386,"INCLINATION":43.0006,"RA_OF_ASC_NODE":167.0599,"ARG_OF_PERICENTER":271.8897,"MEAN_ANOMALY":7.4412,"EPHEMERIS_TYPE":0,"CLASSIFICATION_TYPE":"U","NORAD_CAT_ID":58603,"ELEMENT_SET_NO":999,"REV_AT_EPOCH":578,"BSTAR":7.089595e-5,"MEAN_MOTION_DOT":1.641e-5,"MEAN_MOTION_DDOT":0},{"OBJECT_NAME":"OBJECT C","OBJECT_ID":"2025-234C","EPOCH":"2026-03-09T22:07:06.538080","MEAN_MOTION":15.23160401,"ECCENTRICITY":0.00161414,"INCLINATION":97.4354,"RA_OF_ASC_NODE":138.2572,"ARG_OF_PERICENTER":142.8194,"MEAN_ANOMALY":217.4163,"EPHEMERIS_TYPE":0,"CLASSIFICATION_TYPE":"U","NORAD_CAT_ID":66055,"ELEMENT_SET_NO":999,"REV_AT_EPOCH":2157,"BSTAR":0.00030176965,"MEAN_MOTION_DOT":7.085e-5,"MEAN_MOTION_DDOT":0}]
